ZHONGXING-10R           
1 63075U 25036A   26197.75191792 -.00000363  00000+0  00000+0 0  9994
2 63075   0.0093 109.6828 0004249  37.3331 168.7700  1.00271566  5257
TJS-15                  
1 63157U 25045A   26197.71363396 -.00000276  00000+0  00000+0 0  9995
2 63157   0.3110  85.6500 0003093 293.4061 266.7738  1.00273452  5056
TIANLIAN 2-04           
1 63361U 25062A   26197.85611836 -.00000144  00000+0  00000+0 0  9995
2 63361   4.2998 274.0129 0031546   9.2587  39.6307  1.00271960  4905
TJS-16                  
1 63397U 25064A   26197.72940507 -.00000116  00000+0  00000+0 0  9991
2 63397   1.1725  81.2742 0002470 292.6540 343.8270  1.00270998  4682
TJS-17                  
1 63524U 25073A   26197.73018507 -.00000081  00000+0  00000+0 0  9991
2 63524   1.1385  82.4393 0000993 308.8491 330.6314  1.00270918  4588
TIANLIAN 2-05           
1 63662U 25084A   26197.86086317  .00000115  00000+0  00000+0 0  9991
2 63662   4.3773 279.4966 0002617 155.2792 190.1809  1.00272401  4671
TJS-19                  
1 63924U 25097A   26197.77154308 -.00000284  00000+0  00000+0 0  9990
2 63924   3.2376 317.9333 0004110 252.7576 142.8472  1.00275203  4446
CHINASAT 3B             
1 64062U 25106A   26197.80203903 -.00000056  00000+0  00000+0 0  9992
2 64062   0.0247 155.2391 0004031 350.8365 244.5968  1.00271562  4351
SXM-10                  
1 64290U 25122A   26194.60932681 -.00000021  00000+0  00000+0 0  9992
2 64290   0.0157  36.2449 0001828 322.9748  35.4661  1.00271903  3942
COSMOS 2589             
1 64467U 25131A   26197.77248144 -.00000301  00000+0  00000+0 0  9994
2 64467   0.0255 115.2701 0000992  70.5039 124.9299  1.00268602  3859
CHINASAT 9C             
1 64470U 25132A   26197.78713229  .00000000  00000+0  00000+0 0  9996
2 64470   0.0206  82.2298 0003078  32.2768 195.6655  1.00266274  4445
MTG-S1                  
1 64723U 25143A   26197.82892022 -.00000017  00000+0  00000+0 0  9992
2 64723   0.5834 345.5204 0003394 260.4248 346.7280  1.00274013  3711
DROR 1                  
1 64784U 25148A   26197.83937072 -.00000045  00000+0  00000+0 0  9991
2 64784   0.0447 246.6110 0001987 151.8218 194.4063  1.00272313  3590
SHIYAN-29               
1 65486U 25196A   26196.70123477 -.00000287  00000+0  00000+0 0  9993
2 65486  28.8520  18.1755 0013258 177.9039  85.2184  1.00276249  3167
NUSANTARA LIMA (NUSANT*)
1 65588U 25205A   26197.77017139 -.00000368  00000+0  00000+0 0  9992
2 65588   0.0143 139.6915 0000365  56.7506 128.2486  1.00273913  3010
TJS-20                  
1 66142U 25238A   26197.85256500  .00000016  00000+0  00000+0 0  9990
2 66142   5.4041 299.4379 0004349 182.9904 181.6579  1.00275719  2631
CMS-03 (GSAT-7R)        
1 66311U 25249B   26197.35588380 -.00000087  00000+0  00000+0 0  9998
2 66311   0.0129 340.6337 0001508 100.0789  55.5635  1.00271441  2647
VIASAT-3 F2             
1 66454U 25261A   26195.32953781 -.00000240  00000+0  00000+0 0  9997
2 66454   0.0014 307.9780 0000749 275.9845 107.8920  1.00270448  3068
SHIJIAN-28 (SJ-28)      
1 66549U 25277A   26197.78352662 -.00000369  00000+0  00000+0 0  9994
2 66549   4.4630 271.6633 0001103  22.7080  39.0766  1.00266246  2450
TJS-22                  
1 66990U 25290A   26193.80754925 -.00000005  00000+0  00000+0 0  9993
2 66990   1.4677 286.9097 0002691 318.9700  42.0235  1.00269739  2289
TJS-23                  
1 67226U 25306A   26197.52110644  .00000011  00000+0  00000+0 0  9997
2 67226   5.5227 297.3324 0005046 196.0418 164.1642  1.00275812  2181
FENGYUN 4C              
1 67246U 25312A   26194.65865777 -.00000328  00000+0  00000+0 0  9993
2 67246   0.0385 175.3203 0000658  48.7481  77.5697  1.00269440  2048
SHIJIAN-29A (SJ-29A)    
1 67302U 25315A   26197.77435252 -.00000080  00000+0  00000+0 0  9991
2 67302   3.4713  94.3977 0004925  51.7881 140.3462  1.00272645  1915
SHIJIAN-29B (SJ-29B)    
1 67403U 25315C   26197.77435255 -.00000080  00000+0  00000+0 0  9996
2 67403   3.4703  94.3899 0005076  54.2045 137.9868  1.00272922  1984
ELEKTRO-L 5             
1 67756U 26028A   26196.97247441 -.00000108  00000+0  00000+0 0  9999
2 67756   0.2064 325.2168 0002074 175.9942 218.7841  1.00271896  1547
JAM-E JAM 1             
1 67757U 26028B   26197.85530830  .00000145  00000+0  00000+0 0  9995
2 67757   0.2034 313.7295 0001621 319.4118   3.4930  1.00274879  1413
ECHOSTAR 25             
1 68126U 26045A   26197.60452330  .00000000  00000+0  00000+0 0  9996
2 68126   0.0235  67.1112 0001744  44.2930 290.6693  1.00268439  1280
TJS-24                  
1 69235U 26116A   26197.85811169 -.00000241  00000+0  00000+0 0  9991
2 69235   0.0817  94.4966 0000362 114.4840 124.9008  1.00269465   528
